{
  "type": "FeatureCollection",
  "features": [
    {
      "type": "Feature",
      "properties": {
        "norad_id": 31342,
        "name": "FENGYUN 1C DEB",
        "group": "fengyun-1c-debris",
        "lat": -71.66189251827498,
        "lon": -38.798940198103935,
        "alt_km": 713.3110365297098,
        "timestamp": "2025-12-02T23:34:15.798226+00:00",
        "meta_object_name": "FENGYUN 1C DEB",
        "meta_object_id": "1999-025BQW",
        "meta_epoch": "2025-11-29T02:18:53.046720",
        "meta_mean_motion": 14.36748173,
        "meta_eccentricity": 0.01111347,
        "meta_inclination": 98.9329,
        "meta_ra_of_asc_node": 288.8418,
        "meta_arg_of_pericenter": 259.8555,
        "meta_mean_anomaly": 99.0079,
        "meta_ephemeris_type": 0,
        "meta_classification_type": "U",
        "meta_norad_cat_id": 31342,
        "meta_element_set_no": 999,
        "meta_rev_at_epoch": 97695,
        "meta_bstar": 0.00017184307,
        "meta_mean_motion_dot": 4.93e-06,
        "meta_mean_motion_ddot": 0,
        "tle_line1": "1 31342U 99025BQW 25333.09644730  .00000493  00000+0  17184-3 0  9996",
        "tle_line2": "2 31342  98.9329 288.8418 0111134 259.8555  99.0079 14.36748173976958"
      },
      "geometry": {
        "type": "Point",
        "coordinates": [
          -38.798940198103935,
          -71.66189251827498
        ]
      }
    },
    {
      "type": "Feature",
      "properties": {
        "norad_id": 31346,
        "name": "FENGYUN 1C DEB",
        "group": "fengyun-1c-debris",
        "lat": 35.11138826986274,
        "lon": -63.885741547884514,
        "alt_km": 456.3867975381436,
        "timestamp": "2025-12-02T23:34:15.798237+00:00",
        "meta_object_name": "FENGYUN 1C DEB",
        "meta_object_id": "1999-025BRA",
        "meta_epoch": "2025-12-02T09:06:22.184352",
        "meta_mean_motion": 15.10238029,
        "meta_eccentricity": 0.0113256,
        "meta_inclination": 98.8621,
        "meta_ra_of_asc_node": 301.7157,
        "meta_arg_of_pericenter": 49.5079,
        "meta_mean_anomaly": 311.5949,
        "meta_ephemeris_type": 0,
        "meta_classification_type": "U",
        "meta_norad_cat_id": 31346,
        "meta_element_set_no": 999,
        "meta_rev_at_epoch": 99339,
        "meta_bstar": 0.0014568,
        "meta_mean_motion_dot": 0.00027759,
        "meta_mean_motion_ddot": 0,
        "tle_line1": "1 31346U 99025BRA 25336.37942343  .00027759  00000+0  14568-2 0  9991",
        "tle_line2": "2 31346  98.8621 301.7157 0113256  49.5079 311.5949 15.10238029993395"
      },
      "geometry": {
        "type": "Point",
        "coordinates": [
          -63.885741547884514,
          35.11138826986274
        ]
      }
    },
    {
      "type": "Feature",
      "properties": {
        "norad_id": 31348,
        "name": "FENGYUN 1C DEB",
        "group": "fengyun-1c-debris",
        "lat": -44.375828177334604,
        "lon": 98.39426198410528,
        "alt_km": 801.9012584207412,
        "timestamp": "2025-12-02T23:34:15.798247+00:00",
        "meta_object_name": "FENGYUN 1C DEB",
        "meta_object_id": "1999-025BRC",
        "meta_epoch": "2025-12-02T08:09:36.501984",
        "meta_mean_motion": 14.33921612,
        "meta_eccentricity": 0.0034874,
        "meta_inclination": 99.1182,
        "meta_ra_of_asc_node": 286.7588,
        "meta_arg_of_pericenter": 95.0005,
        "meta_mean_anomaly": 56.8667,
        "meta_ephemeris_type": 0,
        "meta_classification_type": "U",
        "meta_norad_cat_id": 31348,
        "meta_element_set_no": 999,
        "meta_rev_at_epoch": 96100,
        "meta_bstar": 0.0014909,
        "meta_mean_motion_dot": 4.138e-05,
        "meta_mean_motion_ddot": 0,
        "tle_line1": "1 31348U 99025BRC 25336.34000581  .00004138  00000+0  14909-2 0  9994",
        "tle_line2": "2 31348  99.1182 286.7588 0034874  95.0005  56.8667 14.33921612961006"
      },
      "geometry": {
        "type": "Point",
        "coordinates": [
          98.39426198410528,
          -44.375828177334604
        ]
      }
    },
    {
      "type": "Feature",
      "properties": {
        "norad_id": 31350,
        "name": "FENGYUN 1C DEB",
        "group": "fengyun-1c-debris",
        "lat": 78.9153446673657,
        "lon": 22.269271407395294,
        "alt_km": 742.2411737976881,
        "timestamp": "2025-12-02T23:34:15.798257+00:00",
        "meta_object_name": "FENGYUN 1C DEB",
        "meta_object_id": "1999-025BRE",
        "meta_epoch": "2025-11-30T17:33:48.876480",
        "meta_mean_motion": 14.34783112,
        "meta_eccentricity": 0.00667285,
        "meta_inclination": 98.9598,
        "meta_ra_of_asc_node": 146.2979,
        "meta_arg_of_pericenter": 160.2382,
        "meta_mean_anomaly": 200.141,
        "meta_ephemeris_type": 0,
        "meta_classification_type": "U",
        "meta_norad_cat_id": 31350,
        "meta_element_set_no": 999,
        "meta_rev_at_epoch": 70081,
        "meta_bstar": 0.00062280408,
        "meta_mean_motion_dot": 1.764e-05,
        "meta_mean_motion_ddot": 0,
        "tle_line1": "1 31350U 99025BRE 25334.73181570  .00001764  00000+0  62280-3 0  9994",
        "tle_line2": "2 31350  98.9598 146.2979 0066728 160.2382 200.1410 14.34783112700819"
      },
      "geometry": {
        "type": "Point",
        "coordinates": [
          22.269271407395294,
          78.9153446673657
        ]
      }
    },
    {
      "type": "Feature",
      "properties": {
        "norad_id": 31351,
        "name": "FENGYUN 1C DEB",
        "group": "fengyun-1c-debris",
        "lat": -43.77972463597518,
        "lon": 135.4954076398728,
        "alt_km": 932.6486212451109,
        "timestamp": "2025-12-02T23:34:15.798267+00:00",
        "meta_object_name": "FENGYUN 1C DEB",
        "meta_object_id": "1999-025BRF",
        "meta_epoch": "2025-12-02T05:26:52.049184",
        "meta_mean_motion": 14.06916379,
        "meta_eccentricity": 0.0093826,
        "meta_inclination": 98.7938,
        "meta_ra_of_asc_node": 323.2917,
        "meta_arg_of_pericenter": 80.62,
        "meta_mean_anomaly": 280.5562,
        "meta_ephemeris_type": 0,
        "meta_classification_type": "U",
        "meta_norad_cat_id": 31351,
        "meta_element_set_no": 999,
        "meta_rev_at_epoch": 61227,
        "meta_bstar": 0.00034225,
        "meta_mean_motion_dot": 5.52e-06,
        "meta_mean_motion_ddot": 0,
        "tle_line1": "1 31351U 99025BRF 25336.22699131  .00000552  00000+0  34225-3 0  9990",
        "tle_line2": "2 31351  98.7938 323.2917 0093826  80.6200 280.5562 14.06916379612272"
      },
      "geometry": {
        "type": "Point",
        "coordinates": [
          135.4954076398728,
          -43.77972463597518
        ]
      }
    },
    {
      "type": "Feature",
      "properties": {
        "norad_id": 31353,
        "name": "FENGYUN 1C DEB",
        "group": "fengyun-1c-debris",
        "lat": -8.649441165055414,
        "lon": -96.67647576580609,
        "alt_km": 832.9991412213403,
        "timestamp": "2025-12-02T23:34:15.798278+00:00",
        "meta_object_name": "FENGYUN 1C DEB",
        "meta_object_id": "1999-025BRH",
        "meta_epoch": "2025-11-28T00:21:57.879936",
        "meta_mean_motion": 14.29784822,
        "meta_eccentricity": 0.02273016,
        "meta_inclination": 98.9934,
        "meta_ra_of_asc_node": 256.8108,
        "meta_arg_of_pericenter": 110.0293,
        "meta_mean_anomaly": 252.5515,
        "meta_ephemeris_type": 0,
        "meta_classification_type": "U",
        "meta_norad_cat_id": 31353,
        "meta_element_set_no": 999,
        "meta_rev_at_epoch": 96374,
        "meta_bstar": 0.00040911928,
        "meta_mean_motion_dot": 1.339e-05,
        "meta_mean_motion_ddot": 0,
        "tle_line1": "1 31353U 99025BRH 25332.01525324  .00001339  00000+0  40912-3 0  9991",
        "tle_line2": "2 31353  98.9934 256.8108 0227301 110.0293 252.5515 14.29784822963741"
      },
      "geometry": {
        "type": "Point",
        "coordinates": [
          -96.67647576580609,
          -8.649441165055414
        ]
      }
    },
    {
      "type": "Feature",
      "properties": {
        "norad_id": 31357,
        "name": "FENGYUN 1C DEB",
        "group": "fengyun-1c-debris",
        "lat": -55.41888497285431,
        "lon": 20.97060516704413,
        "alt_km": 803.4795907693651,
        "timestamp": "2025-12-02T23:34:15.798288+00:00",
        "meta_object_name": "FENGYUN 1C DEB",
        "meta_object_id": "1999-025BRM",
        "meta_epoch": "2025-11-30T00:52:28.172352",
        "meta_mean_motion": 14.18522875,
        "meta_eccentricity": 0.00493295,
        "meta_inclination": 98.613,
        "meta_ra_of_asc_node": 5.4099,
        "meta_arg_of_pericenter": 329.9646,
        "meta_mean_anomaly": 59.6806,
        "meta_ephemeris_type": 0,
        "meta_classification_type": "U",
        "meta_norad_cat_id": 31357,
        "meta_element_set_no": 999,
        "meta_rev_at_epoch": 96524,
        "meta_bstar": 4.375307e-05,
        "meta_mean_motion_dot": 4.9e-07,
        "meta_mean_motion_ddot": 0,
        "tle_line1": "1 31357U 99025BRM 25334.03643718  .00000049  00000+0  43753-4 0  9991",
        "tle_line2": "2 31357  98.6130   5.4099 0049329 329.9646  59.6806 14.18522875965244"
      },
      "geometry": {
        "type": "Point",
        "coordinates": [
          20.97060516704413,
          -55.41888497285431
        ]
      }
    }
  ]
}